{"type":"FeatureCollection","name":"combined_eudr_plots","crs":{"type":"name","properties":{"name":"urn:ogc:def:crs:OGC:1.3:CRS84"}},"features":[{"type":"Feature","properties":{"fid":1,"layer_name":"7547"},"geometry":{"type":"Polygon","coordinates":[[[98.66645245690063,14.694542684885448],[98.66644545885372,14.693950383089991],[98.66231311216495,14.693303926154947],[98.66252655259511,14.694068843577531],[98.66645245690063,14.694546069462525],[98.66645245690063,14.694542684885448]]]}},{"type":"Feature","properties":{"fid":1,"layer_name":"539"},"geometry":{"type":"Polygon","coordinates":[[[98.67530148719354,14.688182971967395],[98.67512303699785,14.688937753322943],[98.67773680751142,14.688795597392414],[98.67849959462244,14.68679863526361],[98.67776479969895,14.686162311294984],[98.67714197352569,14.68605400064777],[98.67701600868168,14.686961100660904],[98.67427977234752,14.68694756188241],[98.67411881726906,14.688240511445024],[98.67530148719354,14.688193125993957],[98.67530148719354,14.688182971967395]]]}},{"type":"Feature","properties":{"fid":3,"layer_name":"7549"},"geometry":{"type":"Polygon","coordinates":[[[98.67425178015998,14.693919921811377],[98.67437074695712,14.69596758719821],[98.67623222742995,14.695882973306169],[98.67712097938504,14.694163611921324],[98.67602228602324,14.693774384532748],[98.67425877820688,14.693919921811377],[98.67425178015998,14.693919921811377]]]}}]}