{
"type": "FeatureCollection",
"name": "HVFila02",
"crs": { "type": "name", "properties": { "name": "urn:ogc:def:crs:OGC:1.3:CRS84" } },
"features": [
{ "type": "Feature", "properties": { "fid": 1, "Producer Name": "H.V. Fila Co., Ltd.", "Producer Country": "TH", "Production Place": "HV001", "Land Title Type": "Certificate of Ownership", "Land Title No.": "536", "Land Acquisition": "27/09/2002", "Yield (TON)": "5.22918\n", "Planting Space(M)": "3 × 6", "Famer Name": "Mr.kasem Losuwan", "Material Type": "Latex/Cub lump", "Certify No": "N", "Is it located in national park area": "N", "Is it located in national reserved forest area": "N", "If yes, is there valid permission": "N", "Is it located in a wildlife sanctuary": "N", "Is there any wildlife hunting in the area": "N", "Are rubber plantations grown in areas with disease outbreaks?": "N", "What are the rubber tree varieties?": "hevea brasiliensis", "Does rubber plantation cause pollution to soil, water, and air?": "N", "Is there deforestation in the area": "N", "Are waste disposal in the area/ in watercourses": "N", "Are chemicals (herbicides/ pesticides) used such as paraquat, glyphosate, and chlorpyrifos used?": "N", "Is labor hired from outside the household?": "Y", "Is the minimum wage paid according to the law": "Y", "Do the workers have social security": "Y", "Is there any foreign labor": "Y", "Do the foreign workers have social security": "Y", "If yes, do the foreign workers have work permits": "Y", "Are workers under 15 years of age employed at the site": "N", "Are workers aged 18 employed and required to do heavy work?": "N", "Do you ensure that the nature of work is appropriate for each gender": "Y", "Are male and female workers treated equally": "Y", "Is the site located on indigenous peoples' customary land": "N", "Has the land tax been paid": "Y", "\tDo you have any evidence of rubber trading?\tท่านมีหลักฐานการซื้อขายยางพาราหรือไม่\t\t\t": "Y", "Policies/Regulations for the Prevention of Corruption and Misconduct?": "Y", "Area (ha)": "3.1692\n" }, "geometry": { "type": "Polygon", "coordinates": [ [ [ 98.662308759464054, 14.693300765839115 ], [ 98.662535985203448, 14.694063318141415 ], [ 98.666459107152974, 14.694547761751041 ], [ 98.666449832632992, 14.693937721474695 ], [ 98.662318033983993, 14.693300765839115 ], [ 98.662308759464054, 14.693300765839115 ] ] ] } },
{ "type": "Feature", "properties": { "fid": 2, "Producer Name": "H.V. Fila Co., Ltd.", "Producer Country": "TH", "Production Place": "HV002", "Land Title Type": "Certificate of Ownership", "Land Title No.": "7549", "Land Acquisition": "17/10/2006", "Yield (TON)": "10.36926\n", "Planting Space(M)": "3 × 6", "Famer Name": "Mss.Rabieb Tangjan", "Material Type": "Latex/Cub lump", "Certify No": "N", "Is it located in national park area": "N", "Is it located in national reserved forest area": "N", "If yes, is there valid permission": "N", "Is it located in a wildlife sanctuary": "N", "Is there any wildlife hunting in the area": "N", "Are rubber plantations grown in areas with disease outbreaks?": "N", "What are the rubber tree varieties?": "hevea brasiliensis", "Does rubber plantation cause pollution to soil, water, and air?": "N", "Is there deforestation in the area": "N", "Are waste disposal in the area/ in watercourses": "N", "Are chemicals (herbicides/ pesticides) used such as paraquat, glyphosate, and chlorpyrifos used?": "N", "Is labor hired from outside the household?": "Y", "Is the minimum wage paid according to the law": "Y", "Do the workers have social security": "Y", "Is there any foreign labor": "Y", "Do the foreign workers have social security": "Y", "If yes, do the foreign workers have work permits": "Y", "Are workers under 15 years of age employed at the site": "N", "Are workers aged 18 employed and required to do heavy work?": "N", "Do you ensure that the nature of work is appropriate for each gender": "Y", "Are male and female workers treated equally": "Y", "Is the site located on indigenous peoples' customary land": "N", "Has the land tax been paid": "Y", "\tDo you have any evidence of rubber trading?\tท่านมีหลักฐานการซื้อขายยางพาราหรือไม่\t\t\t": "Y", "Policies/Regulations for the Prevention of Corruption and Misconduct?": "Y", "Area (ha)": "6.1244\n" }, "geometry": { "type": "Polygon", "coordinates": [ [ [ 98.674379547211814, 14.695969687253422 ], [ 98.674235792152203, 14.693933235878122 ], [ 98.676021137247432, 14.693803153537376 ], [ 98.676693539945646, 14.694005005412279 ], [ 98.676707451725576, 14.694417679776169 ], [ 98.676572971185934, 14.694610559918091 ], [ 98.675204979489607, 14.695498703490605 ], [ 98.675112234289855, 14.695933802811986 ], [ 98.674384184471776, 14.695965201698568 ], [ 98.674379547211814, 14.695969687253422 ] ] ] } },
{ "type": "Feature", "properties": { "fid": 3, "Producer Name": "H.V. Fila Co., Ltd.", "Producer Country": "TH", "Production Place": "HV003", "Land Title Type": "Certificate of Ownership", "Land Title No.": "7547", "Land Acquisition": "17/10/2006", "Yield (TON)": "13.1472\n", "Planting Space(M)": "3 × 6", "Famer Name": "Mss.Dang Hongduda", "Material Type": "Latex/Cub lump", "Certify No": "N", "Is it located in national park area": "N", "Is it located in national reserved forest area": "N", "If yes, is there valid permission": "N", "Is it located in a wildlife sanctuary": "N", "Is there any wildlife hunting in the area": "N", "Are rubber plantations grown in areas with disease outbreaks?": "N", "What are the rubber tree varieties?": "hevea brasiliensis", "Does rubber plantation cause pollution to soil, water, and air?": "N", "Is there deforestation in the area": "N", "Are waste disposal in the area/ in watercourses": "N", "Are chemicals (herbicides/ pesticides) used such as paraquat, glyphosate, and chlorpyrifos used?": "N", "Is labor hired from outside the household?": "Y", "Is the minimum wage paid according to the law": "Y", "Do the workers have social security": "Y", "Is there any foreign labor": "Y", "Do the foreign workers have social security": "Y", "If yes, do the foreign workers have work permits": "Y", "Are workers under 15 years of age employed at the site": "N", "Are workers aged 18 employed and required to do heavy work?": "N", "Do you ensure that the nature of work is appropriate for each gender": "Y", "Are male and female workers treated equally": "Y", "Is the site located on indigenous peoples' customary land": "N", "Has the land tax been paid": "Y", "\tDo you have any evidence of rubber trading?\tท่านมีหลักฐานการซื้อขายยางพาราหรือไม่\t\t\t": "Y", "Policies/Regulations for the Prevention of Corruption and Misconduct?": "Y", "Area (ha)": "7.968\n" }, "geometry": { "type": "Polygon", "coordinates": [ [ [ 98.674119860652468, 14.688240939626768 ], [ 98.67428680201202, 14.686949050332503 ], [ 98.677032059924684, 14.686949050332503 ], [ 98.677143354164372, 14.686033957463014 ], [ 98.677792570562673, 14.686177501695852 ], [ 98.678497434080796, 14.686814478091939 ], [ 98.67834904176118, 14.687128479857719 ], [ 98.677653452763039, 14.687164365745092 ], [ 98.677282471964006, 14.687559110117355 ], [ 98.67696713828488, 14.687460424091112 ], [ 98.676651804605712, 14.687998710965678 ], [ 98.676299372846657, 14.688151225339141 ], [ 98.676280823806678, 14.688850995806064 ], [ 98.675102959769831, 14.688958652602128 ], [ 98.675297724689329, 14.688187111058618 ], [ 98.674110586132485, 14.688240939626768 ], [ 98.674119860652468, 14.688240939626768 ] ] ] } }
]
}
